$$SOE
2459580.500000000, A.D. 2022-Jan-01 00:00:00.0000, -6.382458728201390E+07, -6.962860685205936E+08, -1.214353594406837E+07,
2459587.500000000, A.D. 2022-Jan-08 00:00:00.0000, -5.640807290944003E+07, -6.973893476974800E+08, -1.167868846522704E+07,
2459594.500000000, A.D. 2022-Jan-15 00:00:00.0000, -4.898358438972401E+07, -6.983937843231683E+08, -1.121218520446110E+07,
2459601.500000000, A.D. 2022-Jan-22 00:00:00.0000, -4.155218287655517E+07, -6.992994212344518E+08, -1.074409563216940E+07,
2459608.500000000, A.D. 2022-Jan-29 00:00:00.0000, -3.411492550643165E+07, -7.001063048266399E+08, -1.027448895974064E+07,
2459615.500000000, A.D. 2022-Feb-05 00:00:00.0000, -2.667286772276739E+07, -7.008144856580343E+08, -9.803433998502761E+06,
2459622.500000000, A.D. 2022-Feb-12 00:00:00.0000, -1.922706342631603E+07, -7.014240201266723E+08, -9.330999303779364E+06,
2459629.500000000, A.D. 2022-Feb-19 00:00:00.0000, -1.177856427667394E+07, -7.019349708505697E+08, -8.857253289044678E+06,
2459636.500000000, A.D. 2022-Feb-26 00:00:00.0000, -4.328419456278547E+06, -7.023474064745129E+08, -8.382264249147743E+06,
2459643.500000000, A.D. 2022-Mar-05 00:00:00.0000, 3.122324262341433E+06, -7.026614015202091E+08, -7.906100357870579E+06,
2459650.500000000, A.D. 2022-Mar-12 00:00:00.0000, 1.057262236789028E+07, -7.028770363453612E+08, -7.428829665822327E+06,
2459657.500000000, A.D. 2022-Mar-19 00:00:00.0000, 1.802143245130247E+07, -7.029943971834172E+08, -6.950520103204340E+06,
2459664.500000000, A.D. 2022-Mar-26 00:00:00.0000, 2.546771405886989E+07, -7.030135762697402E+08, -6.471239490274131E+06,
2459671.500000000, A.D. 2022-Apr-02 00:00:00.0000, 3.291042862532926E+07, -7.029346721098561E+08, -5.991055566559166E+06,
2459678.500000000, A.D. 2022-Apr-09 00:00:00.0000, 4.034853975892488E+07, -7.027577898848009E+08, -5.510036063585252E+06,
2459685.500000000, A.D. 2022-Apr-16 00:00:00.0000, 4.778101423545147E+07, -7.024830413392994E+08, -5.028248800591707E+06,
2459692.500000000, A.D. 2022-Apr-23 00:00:00.0000, 5.520682243221005E+07, -7.021105430681540E+08, -4.545761598345220E+06,
2459699.500000000, A.D. 2022-Apr-30 00:00:00.0000, 6.262493633164023E+07, -7.016404154454535E+08, -4.062642023092270E+06,
2459706.500000000, A.D. 2022-May-07 00:00:00.0000, 7.003432815762295E+07, -7.010727841696042E+08, -3.578957402955562E+06,
2459713.500000000, A.D. 2022-May-14 00:00:00.0000, 7.743397103419307E+07, -7.004077813859756E+08, -3.094774995994747E+06,
2459720.500000000, A.D. 2022-May-21 00:00:00.0000, 8.482283963576005E+07, -6.996455456286700E+08, -2.610162061630666E+06,
2459727.500000000, A.D. 2022-May-28 00:00:00.0000, 9.219991035006261E+07, -6.987862215403483E+08, -2.125185869850934E+06,
2459734.500000000, A.D. 2022-Jun-04 00:00:00.0000, 9.956416123091555E+07, -6.978299596830238E+08, -1.639913699143678E+06,
2459741.500000000, A.D. 2022-Jun-11 00:00:00.0000, 1.069145718853289E+08, -6.967769164375557E+08, -1.154412836201459E+06,
2459748.500000000, A.D. 2022-Jun-18 00:00:00.0000, 1.142501233336063E+08, -6.956272539783221E+08, -6.687505797953010E+05,
2459755.500000000, A.D. 2022-Jun-25 00:00:00.0000, 1.215697978718444E+08, -6.943811403558862E+08, -1.829942541489899E+05,
2459762.500000000, A.D. 2022-Jul-02 00:00:00.0000, 1.288725790709276E+08, -6.930387497530465E+08, 3.027887506238222E+05,
2459769.500000000, A.D. 2022-Jul-09 00:00:00.0000, 1.361574523023781E+08, -6.916002627370543E+08, 7.885308898225725E+05,
2459776.500000000, A.D. 2022-Jul-16 00:00:00.0000, 1.434234057359160E+08, -6.900658654250721E+08, 1.274164420919329E+06,
2459783.500000000, A.D. 2022-Jul-23 00:00:00.0000, 1.506694296102410E+08, -6.884357474849852E+08, 1.759621613976002E+06,
2459790.500000000, A.D. 2022-Jul-30 00:00:00.0000, 1.578945138611260E+08, -6.867101023251082E+08, 2.244834934111357E+06,
2459797.500000000, A.D. 2022-Aug-06 00:00:00.0000, 1.650976477058318E+08, -6.848891288244898E+08, 2.729736919087112E+06,
2459804.500000000, A.D. 2022-Aug-13 00:00:00.0000, 1.722778203608533E+08, -6.829730318495948E+08, 3.214260052866846E+06,
2459811.500000000, A.D. 2022-Aug-20 00:00:00.0000, 1.794340213236745E+08, -6.809620220609742E+08, 3.698336738219291E+06,
2459818.500000000, A.D. 2022-Aug-27 00:00:00.0000, 1.865652402866341E+08, -6.788563157365730E+08, 4.181899302974820E+06,
2459825.500000000, A.D. 2022-Sep-03 00:00:00.0000, 1.936704669307867E+08, -6.766561347222438E+08, 4.664880008346707E+06,
2459832.500000000, A.D. 2022-Sep-10 00:00:00.0000, 2.007486906898202E+08, -6.743617064855304E+08, 5.147211053131610E+06,
2459839.500000000, A.D. 2022-Sep-17 00:00:00.0000, 2.077989005134359E+08, -6.719732642744009E+08, 5.628824570990771E+06,
2459846.500000000, A.D. 2022-Sep-24 00:00:00.0000, 2.148200846906868E+08, -6.694910474317563E+08, 6.109652611074120E+06,
2459853.500000000, A.D. 2022-Oct-01 00:00:00.0000, 2.218112309733717E+08, -6.669153018880502E+08, 6.589627078038633E+06,
2459860.500000000, A.D. 2022-Oct-08 00:00:00.0000, 2.287713274069059E+08, -6.642462803101135E+08, 7.068679636601090E+06,
2459867.500000000, A.D. 2022-Oct-15 00:00:00.0000, 2.356993629368307E+08, -6.614842407072341E+08, 7.546741763878942E+06,
2459874.500000000, A.D. 2022-Oct-22 00:00:00.0000, 2.425943256092265E+08, -6.586294451783788E+08, 8.023745011758268E+06,
2459881.500000000, A.D. 2022-Oct-29 00:00:00.0000, 2.494552008628353E+08, -6.556821613937716E+08, 8.499621037920475E+06,
2459888.500000000, A.D. 2022-Nov-05 00:00:00.0000, 2.562809720124540E+08, -6.526426640696945E+08, 8.974301436690867E+06,
2459895.500000000, A.D. 2022-Nov-12 00:00:00.0000, 2.630706209589355E+08, -6.495112351695654E+08, 9.447717653278917E+06,
2459902.500000000, A.D. 2022-Nov-19 00:00:00.0000, 2.698231284064357E+08, -6.462881637856271E+08, 9.919800969247013E+06,
2459909.500000000, A.D. 2022-Nov-26 00:00:00.0000, 2.765374738490677E+08, -6.429737460987000E+08, 1.039048250256041E+07,
2459916.500000000, A.D. 2022-Dec-03 00:00:00.0000, 2.832126354928853E+08, -6.395682854275677E+08, 1.085969320595393E+07,
2459923.500000000, A.D. 2022-Dec-10 00:00:00.0000, 2.898475901585625E+08, -6.360720923492457E+08, 1.132736386091888E+07,
2459930.500000000, A.D. 2022-Dec-17 00:00:00.0000, 2.964413131893615E+08, -6.324854849149092E+08, 1.179342506296962E+07,
2459937.500000000, A.D. 2022-Dec-24 00:00:00.0000, 3.029927784737738E+08, -6.288087890270443E+08, 1.225780718276975E+07,
2459944.500000000, A.D. 2022-Dec-31 00:00:00.0000, 3.095009589406750E+08, -6.250423388701181E+08, 1.272044027912185E+07,
2459951.500000000, A.D. 2023-Jan-07 00:00:00.0000, 3.159648276500252E+08, -6.211864764324758E+08, 1.318125403127450E+07,
2459958.500000000, A.D. 2023-Jan-14 00:00:00.0000, 3.223833575122993E+08, -6.172415496229362E+08, 1.364017791166031E+07,
2459965.500000000, A.D. 2023-Jan-21 00:00:00.0000, 3.287555189919053E+08, -6.132079121548119E+08, 1.409714139900163E+07,
2459972.500000000, A.D. 2023-Jan-28 00:00:00.0000, 3.350802794627193E+08, -6.090859253928100E+08, 1.455207387941906E+07,
2459979.500000000, A.D. 2023-Feb-04 00:00:00.0000, 3.413566040074461E+08, -6.048759591353329E+08, 1.500490450220403E+07,
2459986.500000000, A.D. 2023-Feb-11 00:00:00.0000, 3.475834558656862E+08, -6.005783915260544E+08, 1.545556213923952E+07,
2459993.500000000, A.D. 2023-Feb-18 00:00:00.0000, 3.537597964674885E+08, -5.961936089180050E+08, 1.590397538673526E+07,
2460000.500000000, A.D. 2023-Feb-25 00:00:00.0000, 3.598845853152608E+08, -5.917220058518401E+08, 1.635007257209945E+07,
2460007.500000000, A.D. 2023-Mar-04 00:00:00.0000, 3.659567798163661E+08, -5.871639851292753E+08, 1.679378175826988E+07,
2460014.500000000, A.D. 2023-Mar-11 00:00:00.0000, 3.719753350951971E+08, -5.825199579809089E+08, 1.723503074309775E+07,
2460021.500000000, A.D. 2023-Mar-18 00:00:00.0000, 3.779392038320104E+08, -5.777903443775834E+08, 1.767374704561660E+07,
2460028.500000000, A.D. 2023-Mar-25 00:00:00.0000, 3.838473363321517E+08, -5.729755735321580E+08, 1.810985785689458E+07,
2460035.500000000, A.D. 2023-Apr-01 00:00:00.0000, 3.896986812506254E+08, -5.680760841981170E+08, 1.854328994891167E+07,
2460042.500000000, A.D. 2023-Apr-08 00:00:00.0000, 3.954921863570264E+08, -5.630923235401077E+08, 1.897396969825703E+07,
2460049.500000000, A.D. 2023-Apr-15 00:00:00.0000, 4.012267970039303E+08, -5.580247456826762E+08, 1.940182334880736E+07,
2460056.500000000, A.D. 2023-Apr-22 00:00:00.0000, 4.069014541078646E+08, -5.528738129888890E+08, 1.982677709811106E+07,
2460063.500000000, A.D. 2023-Apr-29 00:00:00.0000, 4.125150943781146E+08, -5.476399978156672E+08, 2.024875694073084E+07,
2460070.500000000, A.D. 2023-May-06 00:00:00.0000, 4.180666510335130E+08, -5.423237829647204E+08, 2.066768857554701E+07,
2460077.500000000, A.D. 2023-May-13 00:00:00.0000, 4.235550540306838E+08, -5.369256617227278E+08, 2.108349739351711E+07,
2460084.500000000, A.D. 2023-May-20 00:00:00.0000, 4.289792300380656E+08, -5.314461379819093E+08, 2.149610848412350E+07,
2460091.500000000, A.D. 2023-May-27 00:00:00.0000, 4.343381023493681E+08, -5.258857264704551E+08, 2.190544664013511E+07,
2460098.500000000, A.D. 2023-Jun-03 00:00:00.0000, 4.396305907941951E+08, -5.202449530668611E+08, 2.231143635726574E+07,
2460105.500000000, A.D. 2023-Jun-10 00:00:00.0000, 4.448556116697445E+08, -5.145243552119467E+08, 2.271400182514042E+07,
2460112.500000000, A.D. 2023-Jun-17 00:00:00.0000, 4.500120777827649E+08, -5.087244824786057E+08, 2.311306689620987E+07,
2460119.500000000, A.D. 2023-Jun-24 00:00:00.0000, 4.550988989220180E+08, -5.028458972436180E+08, 2.350855500755581E+07,
2460126.500000000, A.D. 2023-Jul-01 00:00:00.0000, 4.601149830148250E+08, -4.968891746335336E+08, 2.390038909986639E+07,
2460133.500000000, A.D. 2023-Jul-08 00:00:00.0000, 4.650592362941087E+08, -4.908549009229767E+08, 2.428849175421059E+07,
2460140.500000000, A.D. 2023-Jul-15 00:00:00.0000, 4.699305611991873E+08, -4.847436732154875E+08, 2.467278543236989E+07,
2460147.500000000, A.D. 2023-Jul-22 00:00:00.0000, 4.747278555315397E+08, -4.785561014411694E+08, 2.505319241307652E+07,
$$EOE